[{"OBJECT_NAME":"QIANFAN-51","OBJECT_ID":"2024-232R","EPOCH":"2026-03-09T22:44:29.851872","MEAN_MOTION":13.51004939,"ECCENTRICITY":0.00119779,"INCLINATION":89.0065,"RA_OF_ASC_NODE":32.4358,"ARG_OF_PERICENTER":315.9199,"MEAN_ANOMALY":44.0996,"EPHEMERIS_TYPE":0,"CLASSIFICATION_TYPE":"U","NORAD_CAT_ID":62252,"ELEMENT_SET_NO":999,"REV_AT_EPOCH":7963,"BSTAR":0.000135403,"MEAN_MOTION_DOT":9.9e-7,"MEAN_MOTION_DDOT":0},{"OBJECT_NAME":"CZ-6A DEB","OBJECT_ID":"2024-140JK","EPOCH":"2026-03-09T15:00:48.169728","MEAN_MOTION":13.84856116,"ECCENTRICITY":0.0204728,"INCLINATION":89.1487,"RA_OF_ASC_NODE":299.2261,"ARG_OF_PERICENTER":255.0274,"MEAN_ANOMALY":102.8154,"EPHEMERIS_TYPE":0,"CLASSIFICATION_TYPE":"U","NORAD_CAT_ID":60856,"ELEMENT_SET_NO":999,"REV_AT_EPOCH":7919,"BSTAR":0.000236,"MEAN_MOTION_DOT":3.24e-6,"MEAN_MOTION_DDOT":0}]
